      2.10          N: GNSS NAV DATA                        RINEX VERSION / TYPE
fic2rin                                 05/30/2022 00:17:35 PGM / RUN BY / DATE
                                                            END OF HEADER
8  22  5 29  1 59 44.0 -.698869116604D-04 -.147792889038D-11  .000000000000D+00
     .500000000000D+01 -.731250000000D+01  .465090801470D-08  .158344937298D+01
    -.387430191040D-06  .743509363383D-02  .515952706337D-06  .515376588058D+04
     .718400000000D+04 -.670552253723D-07  .141408654087D+01  .745058059692D-07
     .963266263701D+00  .371562500000D+03  .170437323490D+00 -.847106713966D-08
    -.735744932444D-10  .100000000000D+01  .221200000000D+04  .000000000000D+00
     .240000000000D+01  .000000000000D+00  .512227416039D-08  .500000000000D+01
     .000000000000D+00  .400000000000D+01
17 22  5 29  4  0  0.0  .618399120867D-03  .454747350886D-11  .000000000000D+00
     .970000000000D+02 -.246562500000D+02  .414267255894D-08  .264065007907D+01
    -.119023025036D-05  .135175012983D-01  .396743416786D-06  .515355550957D+04
     .144000000000D+05  .987201929092D-07  .149754172802D+01  .279396772385D-07
     .978481559696D+00  .379343750000D+03 -.149307261276D+01 -.798533262116D-08
    -.750031241812D-10  .100000000000D+01  .221200000000D+04  .000000000000D+00
     .240000000000D+01  .000000000000D+00 -.111758708954D-07  .970000000000D+02
     .720000000000D+04  .400000000000D+01
25 22  5 29  4  0  0.0  .330619979650D-03  .477484718431D-11  .000000000000D+00
     .940000000000D+02  .118875000000D+03  .436911056242D-08 -.111737183015D+01
     .621192157269D-05  .104884490138D-01  .734254717827D-05  .515367478561D+04
     .144000000000D+05  .188127160072D-06  .381282605060D+00  .212341547012D-06
     .957050043902D+00  .236843750000D+03  .100568763740D+01 -.807033616189D-08
     .203579908492D-10  .100000000000D+01  .221200000000D+04  .000000000000D+00
     .240000000000D+01  .000000000000D+00  .558793544769D-08  .940000000000D+02
     .720000000000D+04  .400000000000D+01
14 22  5 29  4  0  0.0 -.110108871013D-03 -.125055521494D-11  .000000000000D+00
     .290000000000D+02  .133281250000D+03  .444482800207D-08 -.844538641190D+00
     .680983066559D-05  .193039351143D-02  .734254717827D-05  .515366313171D+04
     .144000000000D+05  .726431608200D-07  .426322619671D+00 -.143423676491D-06
     .952937488597D+00  .238062500000D+03  .311655899022D+01 -.806069290307D-08
     .739316509786D-10  .100000000000D+01  .221200000000D+04  .000000000000D+00
     .240000000000D+01  .000000000000D+00 -.791624188423D-08  .541000000000D+03
     .720000000000D+04  .400000000000D+01
11 22  5 29  4  0  0.0 -.197049230337D-04  .375166564481D-11  .000000000000D+00
     .128000000000D+03 -.126000000000D+03  .414481550535D-08  .264487470560D+01
    -.651553273201D-05  .399389420636D-03  .832229852676D-05  .515358734703D+04
     .144000000000D+05 -.931322574615D-08  .253790189026D+01 -.372529029846D-08
     .963176519528D+00  .214062500000D+03  .281981967615D+01 -.790068623815D-08
    -.107147320259D-11  .100000000000D+01  .221200000000D+04  .000000000000D+00
     .240000000000D+01  .000000000000D+00 -.838190317154D-08  .384000000000D+03
     .720000000000D+04  .400000000000D+01
18 22  5 29  4  0  0.0  .157401431352D-03 -.104591890704D-10  .000000000000D+00
     .980000000000D+02 -.111625000000D+03  .395802201036D-08  .818990729931D+00
    -.579468905926D-05  .232863880228D-02  .828318297863D-05  .515374002838D+04
     .144000000000D+05  .391155481339D-07  .250283468913D+01  .540167093277D-07
     .971789356093D+00  .227218750000D+03  .301509156424D+01 -.780496796539D-08
    -.175007289756D-10  .100000000000D+01  .221200000000D+04  .000000000000D+00
     .240000000000D+01  .000000000000D+00 -.838190317154D-08  .866000000000D+03
     .720000000000D+04  .400000000000D+01
28 22  5 29  4  0  0.0  .349152367562D-03 -.727595761418D-11  .000000000000D+00
     .390000000000D+02  .140218750000D+03  .400588114674D-08  .313351855270D+01
     .720471143723D-05  .165561179165D-01  .686757266521D-05  .515368580437D+04
     .144000000000D+05  .154599547386D-06  .481213841242D+00  .670552253723D-07
     .968573366226D+00  .250406250000D+03 -.127804408037D+01 -.762281752095D-08
     .140005831805D-09  .100000000000D+01  .221200000000D+04  .000000000000D+00
     .240000000000D+01  .630000000000D+02 -.111758708954D-07  .390000000000D+02
     .720000000000D+04  .400000000000D+01
5  22  5 29  3 59 44.0 -.835498794913D-04 -.136424205266D-11  .000000000000D+00
     .250000000000D+02 -.109687500000D+02  .448018661776D-08  .310977841027D+01
    -.732019543648D-06  .601114041638D-02  .102184712887D-04  .515372908020D+04
     .143840000000D+05  .447034835815D-07 -.279495954558D+01 -.135973095894D-06
     .961138518111D+00  .184968750000D+03  .102735821010D+01 -.771353558543D-08
     .607882463602D-09  .100000000000D+01  .221200000000D+04  .000000000000D+00
     .240000000000D+01  .000000000000D+00 -.111758708954D-07  .250000000000D+02
     .744000000000D+04  .400000000000D+01
32 22  5 29  3 59 44.0 -.138057861477D-03 -.898126018001D-11  .000000000000D+00
     .400000000000D+01 -.525000000000D+01  .513414242907D-08 -.294362192887D+01
    -.244006514549D-06  .599652482197D-02  .471062958241D-05  .515359449387D+04
     .143840000000D+05  .465661287308D-07 -.171388772932D+01 -.212341547012D-06
     .957726305579D+00  .285281250000D+03 -.228200610642D+01 -.821105630917D-08
    -.917895376884D-10  .100000000000D+01  .221200000000D+04  .000000000000D+00
     .240000000000D+01  .000000000000D+00  .465661287308D-09  .400000000000D+01
     .774000000000D+04  .400000000000D+01
22 22  5 29  3 59 44.0  .266800634563D-03  .625277607469D-11  .000000000000D+00
     .290000000000D+02 -.123125000000D+02  .495520640424D-08  .251669626803D+01
    -.767409801483D-06  .133948922157D-01  .469572842121D-05  .515368818474D+04
     .143840000000D+05  .502914190292D-07 -.162333441538D+01 -.203028321266D-06
     .960953378514D+00  .285187500000D+03 -.185017881860D+01 -.795926010656D-08
    -.251439044874D-09  .100000000000D+01  .221200000000D+04  .000000000000D+00
     .240000000000D+01  .000000000000D+00 -.838190317154D-08  .290000000000D+02
     .118200000000D+05  .400000000000D+01
3  22  5 29  3 59 44.0 -.260693952441D-03 -.128466126625D-10  .000000000000D+00
     .100000000000D+01  .200000000000D+01  .432375153018D-08 -.647943331566D+00
     .245869159698D-06  .421415199526D-02  .989995896816D-05  .515361624336D+04
     .143840000000D+05  .372529029846D-08 -.275320483097D+01  .819563865662D-07
     .974102283704D+00  .200250000000D+03  .960593092512D+00 -.778925302508D-08
     .668956436149D-09  .100000000000D+01  .221200000000D+04  .000000000000D+00
     .240000000000D+01  .000000000000D+00  .186264514923D-08  .100000000000D+01
     .139200000000D+05  .400000000000D+01
3  22  5 29  5 59 44.0 -.260786153376D-03 -.128466126625D-10  .000000000000D+00
     .300000000000D+01  .675000000000D+01  .419267464173D-08  .402293458760D+00
     .968575477600D-07  .421482755337D-02  .984407961369D-05  .515361754799D+04
     .215840000000D+05 -.633299350739D-07 -.275326069835D+01  .726431608200D-07
     .974107079150D+00  .199937500000D+03  .960569981333D+00 -.776853787650D-08
     .633240662730D-09  .100000000000D+01  .221200000000D+04  .000000000000D+00
     .240000000000D+01  .000000000000D+00  .186264514923D-08  .300000000000D+01
     .144000000000D+05  .400000000000D+01
5  22  5 29  5 59 44.0 -.835596583784D-04 -.136424205266D-11  .000000000000D+00
     .260000000000D+02 -.109375000000D+02  .436303888094D-08 -.212325558196D+01
    -.759959220886D-06  .601108931005D-02  .974535942078D-05  .515372917557D+04
     .215840000000D+05  .968575477600D-07 -.279501578161D+01  .558793544769D-08
     .961143323797D+00  .184375000000D+03  .102735360922D+01 -.772925052574D-08
     .725387358152D-09  .100000000000D+01  .221200000000D+04  .000000000000D+00
     .240000000000D+01  .000000000000D+00 -.111758708954D-07  .260000000000D+02
     .144000000000D+05  .400000000000D+01
